ONEWEB-0176             
1 48210U 21031A   24175.22273709 -.00000038  00000+0 -13632-3 0  9993
2 48210  87.8966  73.7324 0001914  78.2253 281.9091 13.14504729153206
ONEWEB-0184             
1 48211U 21031B   24175.27189503 -.00000048  00000+0 -16431-3 0  9998
2 48211  87.8964  73.7057 0002681  60.6348 299.5049 13.14504356153181
ONEWEB-0179             
1 48212U 21031C   24175.24176419  .00000322  00000+0  83405-3 0  9996
2 48212  87.8965  73.7151 0001786  75.7123 284.4205 13.14504952153225
ONEWEB-0180             
1 48213U 21031D   24175.27506317 -.00000139  00000+0 -41015-3 0  9993
2 48213  87.8965  73.7062 0001723  74.3609 285.7711 13.14504618153115
ONEWEB-0218             
1 48214U 21031E   24175.22114878 -.00000365  00000+0 -10184-2 0  9999
2 48214  87.8963  73.7188 0002484  53.3076 306.8281 13.14502873153267
ONEWEB-0209             
1 48215U 21031F   24175.21004303 -.00000335  00000+0 -93795-3 0  9997
2 48215  87.8966  73.7548 0001701  75.2191 284.9127 13.14502782153267
ONEWEB-0198             
1 48216U 21031G   24175.27030784 -.00000065  00000+0 -20881-3 0  9992
2 48216  87.8965  73.7477 0001933  65.2070 294.9261 13.14501236153386
ONEWEB-0189             
1 48217U 21031H   24175.28299312 -.00000102  00000+0 -30910-3 0  9994
2 48217  87.8962  73.7211 0001857  63.4848 296.6472 13.14505126153125
